#cP2022 10 13  0  0  0.00000000      96 ORBIT IGb14 HLM  IGS
## 2231 345600.00000000   900.00000000 59865 0.0000000000000
+   32   G01G02G03G04G05G06G07G08G09G10G11G12G13G14G15G16G17
+        G18G19G20G21G22G23G24G25G26G27G28G29G30G31G32  0  0
+          0  0  0  0  0  0  0  0  0  0  0  0  0  0  0  0  0
+          0  0  0  0  0  0  0  0  0  0  0  0  0  0  0  0  0
+          0  0  0  0  0  0  0  0  0  0  0  0  0  0  0  0  0
++         2  2  2  2  2  2  2  2  2  2  3  2  2  2  2  2  2
++         3  2  2  3  2  2  2  2  2  2  3  2  3  2  2  0  0
++         0  0  0  0  0  0  0  0  0  0  0  0  0  0  0  0  0
++         0  0  0  0  0  0  0  0  0  0  0  0  0  0  0  0  0
++         0  0  0  0  0  0  0  0  0  0  0  0  0  0  0  0  0
%c G  cc GPS ccc cccc cccc cccc cccc ccccc ccccc ccccc ccccc
%c cc cc ccc ccc cccc cccc cccc cccc ccccc ccccc ccccc ccccc
%f  1.2500000  1.025000000  0.00000000000  0.000000000000000
%f  0.0000000  0.000000000  0.00000000000  0.000000000000000
%i    0    0    0    0      0      0      0      0         0
%i    0    0    0    0      0      0      0      0         0
/* RAPID ORBIT COMBINATION FROM WEIGHTED AVERAGE OF:        
/* cod esa gfz jpl ngs sio usn whu                          
/* REFERENCED TO IGS TIME (IGST) AND TO WEIGHTED MEAN POLE: 
/* PCV:IGS14_2223 OL/AL:FES2004  NONE     Y  ORB:CMB CLK:CMB
*  2022 10 13 11 15  0.00000000
PG01  18386.299762  13796.563194 -13907.838486    268.258259  8  5  7 109       
PG02 -15985.804142 -13840.189880  16623.694104   -642.537699  5  6  7  91       
PG03  11913.528942  22802.220667   6704.716972   -363.942076  2  3  4  95       
PG04   9186.060756  12247.210498  21701.086045   -104.284829  5  2  4  86       
PG05  -5884.837620 -25407.682685   4483.722097   -100.231700  6  3  6  59       
PG06  17839.163713  -8084.052780  18036.831648    489.872009  4  6  2  57       
PG07  26096.059114   6231.860349    406.575952    299.134499  8  5  6  66       
PG08    485.298716  18979.068833 -18461.032418    -88.669653  2  6     80       
PG09  17739.435808    950.999698  19679.388626   -283.803511  6  5  3  57       
PG10 -13616.931582   6005.215267 -21833.889244     -7.320761  3  3     78       
PG11   6434.441686 -13851.944729  21729.595024    -25.396594  7  8  5  86       
PG12 -10098.272754 -23734.881973   6292.050127   -291.738396  5  3  6  59       
PG13   8917.675051 -20361.454590 -14567.247712    405.214781  9  5  5 104       
PG14  14951.840200  -3799.673034 -21612.840772    -95.491435  7  7  4  96       
PG15  -3381.482864 -19119.040477 -18441.670637    -21.279094  8  5  4  90       
PG16  -1470.510327  24358.918568   9623.864733   -526.146397  8  6  5  74       
PG17  21629.785530 -11288.951595 -10130.592695    668.306096  6  6  4  81       
PG18 -26082.567198  -5120.974885  -1753.321462     16.219222 11  6  7  90       
PG19  20208.605700 -17008.972404   -811.158690    223.212201  4  5  6  89       
PG20   2862.040209 -20767.645805  16451.311411    478.733053  5  4  5  65       
PG21  11354.299869  14707.728579 -18643.029717    158.076498  9  4  4  85       
PG22 -18119.990876  19163.562173   2601.303993    344.888758  7  5  5  98       
PG23 -16499.878827  -5642.668478 -20082.041047     -0.972068  7  5  5  74       
PG24 -15333.229147 -14537.657378 -16665.140406    101.475663  4  6  5  69       
PG25 -15963.021452 -14959.690425  14957.264227    381.915010  8  4  6  95       
PG26  -7057.504656  18206.792760  17768.216386    232.272721  8  7  2  72       
PG27 -10373.999027  21957.172157 -10486.874801    198.694740  7  3  5  83       
PG28  10778.460042 -13881.834250 -19487.136875    329.536738  7  5  7 106       
PG29 -16587.106955  -3311.568265  20456.194230   -559.280461  2  6  5  92       
PG30  24264.152255  -2371.949910 -10749.488232 999999.999999
PG31 -17426.732437   8834.965813  18047.075640   -196.643673  8  8  8  72       
PG32 -20654.965372  14302.083290  -8156.033467   -262.023170  5  5  2  93       
*  2022 10 13 11 30  0.00000000
PG01  16751.328042  13565.171455 -16052.237654    268.252724  8  6  7 102       
PG02 -14086.880978 -13773.831595  18386.809544   -642.536421  5  6  7  94       
PG03  11928.681136  23452.711728   3911.802334   -363.945905  2  4  5  95       
PG04   7488.079868  14025.698812  21263.683055   -104.279326  6  2  4  85       
PG05  -5392.227227 -24857.599843   7243.621969   -100.233131  7  2  6  50       
PG06  19721.822097  -7606.785411  16189.248384    489.881860  5  7  3  48       
PG07  25894.090474   6440.103530   3204.701191    299.131071  8  5  6  72       
PG08   -925.501323  20436.552609 -16777.596179    -88.670865     5     84       
PG09  16332.761560   2806.183583  20686.389425   -283.798817  6  4  4  45       
PG10 -14469.638635   3625.683721 -21837.630755     -7.321740  3  3     82       
PG11   8813.814748 -13228.549556  21275.233950    -25.400529  7  8  6  80       
PG12 -10035.307596 -24362.277923   3501.963025   -291.742357  5  4  6  68       
PG13  10179.911755 -21223.157433 -12290.450172    405.220816 10  5  5 105       
PG14  15667.265617  -1440.188696 -21401.070147    -95.487983  7  7  3  92       
PG15  -2144.775894 -20652.894003 -16840.059863    -21.276170  8  4  5  84       
PG16  -2023.219077  23161.988278  12127.846697   -526.147102  8  6  5  73       
PG17  20814.800205 -10187.898287 -12592.753841    668.309453  7  5  4  91       
PG18 -26074.585837  -5333.921077   1117.828194     16.207181 12  5  6  91       
PG19  20195.096205 -16682.035548  -3696.904632    223.216604  5  5  6 111       
PG20   3952.004497 -19114.750638  18123.564436    478.729768  4  4  5  56       
PG21   9054.446464  14557.926037 -19869.827008    158.075669  9  4  4  77       
PG22 -18369.653426  19036.870346   -262.856622    344.894861  6  4  5  87       
PG23 -17199.237358  -7745.890737 -18761.322441     -0.972252  7  5  4  88       
PG24 -13390.574848 -14498.000593 -18287.727751    101.462503  3  5  6  56       
PG25 -16326.529503 -16554.817910  12793.042588    381.918504  7  4  6  88       
PG26  -8053.989970  16295.563186  19168.272106    232.273857  7  7  2  69       
PG27 -11220.728691  22590.462771  -7855.926508    198.689151  7  3  5  83       
PG28  11439.156737 -11589.382836 -20531.342176    329.532402  6  5  7  98       
PG29 -14934.694855  -5045.163771  21346.526605   -559.282888  3  5  5  93       
PG30  25282.762594  -1884.369860  -8249.420670 999999.999999
PG31 -19332.645226   8281.924707  16341.049496   -196.644821  8  8  9  61       
PG32 -20133.549765  13294.704815 -10730.977692   -262.033917  4  6  2  96       
*  2022 10 13 11 45  0.00000000
PG01  14883.536809  13396.741253 -17929.983575    268.247200  8  6  7 102       
PG02 -12013.538746 -13800.599682  19846.999118   -642.534892  6  6  7  91       
PG03  11856.473941  23805.564107   1051.854203   -363.949679  2  5  5  89       
PG04   5929.090555  15836.688178  20460.007188   -104.273850  7  2  4  88       
PG05  -4739.865443 -24055.846830   9877.235592   -100.234237  7  3  6  50       
PG06  21405.728097  -7266.541694  14065.096926    489.891753  6  7  3  49       
PG07  25397.907614   6614.824579   5949.608534    299.127450  8  5  6  66       
PG08  -2138.845422  21798.190119 -14802.087795    -88.672219     4     75       
PG09  14966.675421   4807.028450  21335.249179   -283.794105  6  4  5  47       
PG10 -15440.138543   1318.280716 -21460.753282     -7.322610  4  4     87       
PG11  11152.023870 -12744.160012  20454.693962    -25.404412  7  8  7  78       
PG12  -9905.609844 -24688.259226    651.709650   -291.746121  5  4  6  25       
PG13  11205.289384 -21960.549567  -9801.998741    405.227126 10  5  6 112       
PG14  16484.991669    837.152844 -20821.135635    -95.484545  8  7  4  69       
PG15  -1075.579596 -22078.177962 -14954.290180    -21.273392  7  5  6  78       
PG16  -2721.040217  21732.235638  14414.973735   -526.147553  8  6  6  45       
PG17  19884.270213  -8836.716527 -14833.569468    668.312914  7  6  4  74       
PG18 -25758.271914  -5500.012103   3969.906834     16.195126 12  5  6  94       
PG19  19974.641585 -16120.515263  -6518.278521    223.221269  5  4  6 111       
PG20   5214.606166 -17372.167343  19486.571879    478.727227  4  5  5  38       
PG21   6619.727955  14521.937331 -20742.202347    158.074846  8  4  3  68       
PG22 -18409.843803  18679.197886  -3122.396509    344.901083  6  3  5  98       
PG23 -17941.438730  -9654.910792 -17119.361231     -0.972481  8  5  4 102       
PG24 -11284.177366 -14546.534493 -19607.563016    101.449446  3  5  6  89       
PG25 -16670.757206 -17888.720045  10408.082262    381.922030  5  4  6  86       
PG26  -9200.223553  14309.904489  20233.099744    232.275172  7  7  3  60       
PG27 -11849.224699  23022.340611  -5087.619919    198.683549  7  4  6  70       
PG28  12249.238697  -9235.616914 -21207.739628    329.528254  6  5  7  94       
PG29 -13326.214360  -6927.625542  21868.563181   -559.285885  4  5  5  97       
PG30  26037.407082  -1489.322853  -5608.963923 999999.999999
PG31 -21055.396014   7861.462528  14356.117307   -196.646061  8  8  9  53       
PG32 -19494.697402  12035.144306 -13117.978415   -262.044631  5  6  2 101       
EOF
